{
  "links" : {
    "next" : "https://api.nasa.gov/neo/rest/v1/feed?start_date=2015-02-23&end_date=2015-02-23&detailed=true&api_key=t0TVs3DtDT2H8Oy2Zy8m2eVrNsAVKAexjcZXUckd",
    "prev" : "https://api.nasa.gov/neo/rest/v1/feed?start_date=2015-02-21&end_date=2015-02-21&detailed=true&api_key=t0TVs3DtDT2H8Oy2Zy8m2eVrNsAVKAexjcZXUckd",
    "self" : "https://api.nasa.gov/neo/rest/v1/feed?start_date=2015-02-22&end_date=2015-02-22&detailed=true&api_key=t0TVs3DtDT2H8Oy2Zy8m2eVrNsAVKAexjcZXUckd"
  },
  "element_count" : 6,
  "near_earth_objects" : {
    "2015-02-22" : [ {
      "links" : {
        "self" : "https://api.nasa.gov/neo/rest/v1/neo/3712031?api_key=t0TVs3DtDT2H8Oy2Zy8m2eVrNsAVKAexjcZXUckd"
      },
      "neo_reference_id" : "3712031",
      "name" : "(2015 DZ155)",
      "nasa_jpl_url" : "http://ssd.jpl.nasa.gov/sbdb.cgi?sstr=3712031",
      "absolute_magnitude_h" : 24.4,
      "estimated_diameter" : {
        "kilometers" : {
          "estimated_diameter_min" : 0.0350392641,
          "estimated_diameter_max" : 0.0783501764
        },
        "meters" : {
          "estimated_diameter_min" : 35.0392641108,
          "estimated_diameter_max" : 78.3501764334
        },
        "miles" : {
          "estimated_diameter_min" : 0.0217723826,
          "estimated_diameter_max" : 0.0486845275
        },
        "feet" : {
          "estimated_diameter_min" : 114.9582192654,
          "estimated_diameter_max" : 257.0543928497
        }
      },
      "is_potentially_hazardous_asteroid" : false,
      "close_approach_data" : [ {
        "close_approach_date" : "2015-02-22",
        "epoch_date_close_approach" : 1424592000000,
        "relative_velocity" : {
          "kilometers_per_second" : "11.5399318021",
          "kilometers_per_hour" : "41543.7544875755",
          "miles_per_hour" : "25813.6734481271"
        },
        "miss_distance" : {
          "astronomical" : "0.0616898523",
          "lunar" : "23.9973526001",
          "kilometers" : "9228671",
          "miles" : "5734430"
        },
        "orbiting_body" : "Earth"
      } ],
      "orbital_data" : {
        "orbit_id" : "5",
        "orbit_determination_date" : "2017-04-06 08:35:29",
        "orbit_uncertainty" : "7",
        "minimum_orbit_intersection" : ".0358239",
        "jupiter_tisserand_invariant" : "6.111",
        "epoch_osculation" : "2458000.5",
        "eccentricity" : ".3409113808327888",
        "semi_major_axis" : ".9780623403034351",
        "inclination" : "14.11246997289391",
        "ascending_node_longitude" : "325.9737578526656",
        "orbital_period" : "353.3037379937143",
        "perihelion_distance" : ".644629757330042",
        "perihelion_argument" : "301.6543384210813",
        "aphelion_distance" : "1.311494923276828",
        "perihelion_time" : "2457859.488307517025",
        "mean_anomaly" : "143.6843255102335",
        "mean_motion" : "1.01895327245704",
        "equinox" : "J2000"
      }
    }, {
      "links" : {
        "self" : "https://api.nasa.gov/neo/rest/v1/neo/3753079?api_key=t0TVs3DtDT2H8Oy2Zy8m2eVrNsAVKAexjcZXUckd"
      },
      "neo_reference_id" : "3753079",
      "name" : "(2016 JH18)",
      "nasa_jpl_url" : "http://ssd.jpl.nasa.gov/sbdb.cgi?sstr=3753079",
      "absolute_magnitude_h" : 26.1,
      "estimated_diameter" : {
        "kilometers" : {
          "estimated_diameter_min" : 0.0160160338,
          "estimated_diameter_max" : 0.0358129403
        },
        "meters" : {
          "estimated_diameter_min" : 16.0160337979,
          "estimated_diameter_max" : 35.8129403019
        },
        "miles" : {
          "estimated_diameter_min" : 0.0099518989,
          "estimated_diameter_max" : 0.0222531225
        },
        "feet" : {
          "estimated_diameter_min" : 52.5460443254,
          "estimated_diameter_max" : 117.4965270602
        }
      },
      "is_potentially_hazardous_asteroid" : false,
      "close_approach_data" : [ {
        "close_approach_date" : "2015-02-22",
        "epoch_date_close_approach" : 1424592000000,
        "relative_velocity" : {
          "kilometers_per_second" : "21.886247754",
          "kilometers_per_hour" : "78790.4919145746",
          "miles_per_hour" : "48957.3476010311"
        },
        "miss_distance" : {
          "astronomical" : "0.4774372216",
          "lunar" : "185.7230834961",
          "kilometers" : "71423592",
          "miles" : "44380564"
        },
        "orbiting_body" : "Earth"
      } ],
      "orbital_data" : {
        "orbit_id" : "7",
        "orbit_determination_date" : "2017-04-06 08:25:59",
        "orbit_uncertainty" : "7",
        "minimum_orbit_intersection" : ".019812",
        "jupiter_tisserand_invariant" : "6.604",
        "epoch_osculation" : "2458000.5",
        "eccentricity" : ".2589775393997538",
        "semi_major_axis" : ".8963846842814953",
        "inclination" : "4.333445913231539",
        "ascending_node_longitude" : "224.9175107458287",
        "orbital_period" : "309.9845639489179",
        "perihelion_distance" : ".6642411843906485",
        "perihelion_argument" : "147.6262901139639",
        "aphelion_distance" : "1.128528184172342",
        "perihelion_time" : "2457933.919433873401",
        "mean_anomaly" : "77.32321732486442",
        "mean_motion" : "1.161348150417336",
        "equinox" : "J2000"
      }
    }, {
      "links" : {
        "self" : "https://api.nasa.gov/neo/rest/v1/neo/3718391?api_key=t0TVs3DtDT2H8Oy2Zy8m2eVrNsAVKAexjcZXUckd"
      },
      "neo_reference_id" : "3718391",
      "name" : "(2015 HG170)",
      "nasa_jpl_url" : "http://ssd.jpl.nasa.gov/sbdb.cgi?sstr=3718391",
      "absolute_magnitude_h" : 21.0,
      "estimated_diameter" : {
        "kilometers" : {
          "estimated_diameter_min" : 0.1677084622,
          "estimated_diameter_max" : 0.3750075218
        },
        "meters" : {
          "estimated_diameter_min" : 167.7084621628,
          "estimated_diameter_max" : 375.0075217981
        },
        "miles" : {
          "estimated_diameter_min" : 0.1042091748,
          "estimated_diameter_max" : 0.2330187988
        },
        "feet" : {
          "estimated_diameter_min" : 550.2246310023,
          "estimated_diameter_max" : 1230.3396778159
        }
      },
      "is_potentially_hazardous_asteroid" : false,
      "close_approach_data" : [ {
        "close_approach_date" : "2015-02-22",
        "epoch_date_close_approach" : 1424592000000,
        "relative_velocity" : {
          "kilometers_per_second" : "5.8530474368",
          "kilometers_per_hour" : "21070.9707723554",
          "miles_per_hour" : "13092.6818113005"
        },
        "miss_distance" : {
          "astronomical" : "0.2986789058",
          "lunar" : "116.1860961914",
          "kilometers" : "44681728",
          "miles" : "27763938"
        },
        "orbiting_body" : "Earth"
      } ],
      "orbital_data" : {
        "orbit_id" : "16",
        "orbit_determination_date" : "2017-04-06 08:34:02",
        "orbit_uncertainty" : "4",
        "minimum_orbit_intersection" : ".149978",
        "jupiter_tisserand_invariant" : "3.870",
        "epoch_osculation" : "2458000.5",
        "eccentricity" : ".4030139699113262",
        "semi_major_axis" : "1.875697992623509",
        "inclination" : "4.393231886118084",
        "ascending_node_longitude" : "32.24038609950377",
        "orbital_period" : "938.3023354955247",
        "perihelion_distance" : "1.119765498261603",
        "perihelion_argument" : "116.3177293719983",
        "aphelion_distance" : "2.631630486985415",
        "perihelion_time" : "2457995.550311174775",
        "mean_anomaly" : "1.899055250821638",
        "mean_motion" : ".3836716443958132",
        "equinox" : "J2000"
      }
    } ]
  }
}